{
  "schema": "int-temerity-real-tle-snapshot/v1",
  "source": "celestrak",
  "group": "STARLINK",
  "format": "celestrak-gp-json",
  "source_url": "https://celestrak.org/NORAD/elements/gp.php?NAME=STARLINK&FORMAT=JSON",
  "downloaded_at": "2026-07-03T12:25:16.552Z",
  "generated_at": "2026-07-03T12:25:35.465Z",
  "fingerprint": "eb0f9db4",
  "shell_id": "starlink-real-43deg-490km",
  "catalog_count": 10717,
  "shell_count": 3264,
  "selected_count": 1584,
  "mean_altitude_km": 490.23,
  "mean_inclination_deg": 43.0019,
  "mean_mean_motion_rev_per_day": 15.27566421,
  "layout": {
    "planes": 72,
    "satellites_per_plane": 22,
    "selection_strategy": "largest-shell-raan-clusters-even-slot-sampling",
    "raan_cluster_threshold_deg": 2.5,
    "selected_shell_key": "43.0deg-500km"
  },
  "satellites": [
    {
      "satellite_id": "P54-S05",
      "norad_id": 59795,
      "satellite_name": "STARLINK-31916",
      "cospar_id": "2024-093P",
      "shell_id": "starlink-real-43deg-490km",
      "plane_id": 53,
      "slot_id": 4,
      "epoch": "2026-07-02T16:38:11.143392",
      "inclination": 43.0024,
      "raan": 279.4208,
      "eccentricity": 0.0001029,
      "argument_of_perigee": 278.38200000000006,
      "mean_anomaly": 81.69150000000002,
      "mean_motion": 15.27569452,
      "bstar": -0.000040869,
      "status": "active",
      "raw_omm": {
        "OBJECT_NAME": "STARLINK-31916",
        "OBJECT_ID": "2024-093P",
        "EPOCH": "2026-07-02T16:38:11.143392",
        "MEAN_MOTION": 15.27569452,
        "ECCENTRICITY": 0.0001029,
        "INCLINATION": 43.0024,
        "RA_OF_ASC_NODE": 279.4208,
        "ARG_OF_PERICENTER": 278.382,
        "MEAN_ANOMALY": 81.6915,
        "EPHEMERIS_TYPE": 0,
        "CLASSIFICATION_TYPE": "U",
        "NORAD_CAT_ID": 59795,
        "ELEMENT_SET_NO": 999,
        "REV_AT_EPOCH": 12028,
        "BSTAR": -0.000040869,
        "MEAN_MOTION_DOT": -0.00001386,
        "MEAN_MOTION_DDOT": 0
      },
      "source": "celestrak",
      "source_url": "https://celestrak.org/NORAD/elements/gp.php?NAME=STARLINK&FORMAT=JSON",
      "catalog_fingerprint": "eb0f9db4"
    },
    {
      "satellite_id": "P54-S06",
      "norad_id": 59794,
      "satellite_name": "STARLINK-31823",
      "cospar_id": "2024-093N",
      "shell_id": "starlink-real-43deg-490km",
      "plane_id": 53,
      "slot_id": 5,
      "epoch": "2026-07-02T16:32:37.223808",
      "inclination": 43.0019,
      "raan": 279.39380000000006,
      "eccentricity": 0.0001173,
      "argument_of_perigee": 262.66329999999994,
      "mean_anomaly": 97.40859999999998,
      "mean_motion": 15.2758244,
      "bstar": 0.000036377,
      "status": "active",
      "raw_omm": {
        "OBJECT_NAME": "STARLINK-31823",
        "OBJECT_ID": "2024-093N",
        "EPOCH": "2026-07-02T16:32:37.223808",
        "MEAN_MOTION": 15.2758244,
        "ECCENTRICITY": 0.0001173,
        "INCLINATION": 43.0019,
        "RA_OF_ASC_NODE": 279.3938,
        "ARG_OF_PERICENTER": 262.6633,
        "MEAN_ANOMALY": 97.4086,
        "EPHEMERIS_TYPE": 0,
        "CLASSIFICATION_TYPE": "U",
        "NORAD_CAT_ID": 59794,
        "ELEMENT_SET_NO": 999,
        "REV_AT_EPOCH": 12028,
        "BSTAR": 0.000036377,
        "MEAN_MOTION_DOT": 0.00000739,
        "MEAN_MOTION_DDOT": 0
      },
      "source": "celestrak",
      "source_url": "https://celestrak.org/NORAD/elements/gp.php?NAME=STARLINK&FORMAT=JSON",
      "catalog_fingerprint": "eb0f9db4"
    },
    {
      "satellite_id": "P54-S07",
      "norad_id": 59791,
      "satellite_name": "STARLINK-31865",
      "cospar_id": "2024-093K",
      "shell_id": "starlink-real-43deg-490km",
      "plane_id": 53,
      "slot_id": 6,
      "epoch": "2026-07-02T14:52:56.538048",
      "inclination": 43.0012,
      "raan": 279.7356,
      "eccentricity": 0.0000939,
      "argument_of_perigee": 288.20949999999993,
      "mean_anomaly": 71.86540000000002,
      "mean_motion": 15.2756068,
      "bstar": -0.000049273,
      "status": "active",
      "raw_omm": {
        "OBJECT_NAME": "STARLINK-31865",
        "OBJECT_ID": "2024-093K",
        "EPOCH": "2026-07-02T14:52:56.538048",
        "MEAN_MOTION": 15.2756068,
        "ECCENTRICITY": 0.0000939,
        "INCLINATION": 43.0012,
        "RA_OF_ASC_NODE": 279.7356,
        "ARG_OF_PERICENTER": 288.2095,
        "MEAN_ANOMALY": 71.8654,
        "EPHEMERIS_TYPE": 0,
        "CLASSIFICATION_TYPE": "U",
        "NORAD_CAT_ID": 59791,
        "ELEMENT_SET_NO": 999,
        "REV_AT_EPOCH": 12027,
        "BSTAR": -0.000049273,
        "MEAN_MOTION_DOT": -0.00001617,
        "MEAN_MOTION_DDOT": 0
      },
      "source": "celestrak",
      "source_url": "https://celestrak.org/NORAD/elements/gp.php?NAME=STARLINK&FORMAT=JSON",
      "catalog_fingerprint": "eb0f9db4"
    },
    {
      "satellite_id": "P54-S08",
      "norad_id": 57534,
      "satellite_name": "STARLINK-30264",
      "cospar_id": "2023-115P",
      "shell_id": "starlink-real-43deg-490km",
      "plane_id": 53,
      "slot_id": 7,
      "epoch": "2026-07-02T17:59:25.040832",
      "inclination": 43.0011,
      "raan": 279.0992,
      "eccentricity": 0.0001247,
      "argument_of_perigee": 276.9261,
      "mean_anomaly": 83.1449,
      "mean_motion": 15.27570485,
      "bstar": -0.0000069414,
      "status": "active",
      "raw_omm": {
        "OBJECT_NAME": "STARLINK-30264",
        "OBJECT_ID": "2023-115P",
        "EPOCH": "2026-07-02T17:59:25.040832",
        "MEAN_MOTION": 15.27570485,
        "ECCENTRICITY": 0.0001247,
        "INCLINATION": 43.0011,
        "RA_OF_ASC_NODE": 279.0992,
        "ARG_OF_PERICENTER": 276.9261,
        "MEAN_ANOMALY": 83.1449,
        "EPHEMERIS_TYPE": 0,
        "CLASSIFICATION_TYPE": "U",
        "NORAD_CAT_ID": 57534,
        "ELEMENT_SET_NO": 999,
        "REV_AT_EPOCH": 16295,
        "BSTAR": -0.0000069414,
        "MEAN_MOTION_DOT": -0.00000453,
        "MEAN_MOTION_DDOT": 0
      },
      "source": "celestrak",
      "source_url": "https://celestrak.org/NORAD/elements/gp.php?NAME=STARLINK&FORMAT=JSON",
      "catalog_fingerprint": "eb0f9db4"
    },
    {
      "satellite_id": "P54-S09",
      "norad_id": 56301,
      "satellite_name": "STARLINK-30101",
      "cospar_id": "2023-056R",
      "shell_id": "starlink-real-43deg-490km",
      "plane_id": 53,
      "slot_id": 8,
      "epoch": "2026-07-02T14:48:03.204000",
      "inclination": 43.0012,
      "raan": 279.25880000000006,
      "eccentricity": 0.000109,
      "argument_of_perigee": 346.05140000000006,
      "mean_anomaly": 14.0308,
      "mean_motion": 15.28978689,
      "bstar": 0.00092442,
      "status": "active",
      "raw_omm": {
        "OBJECT_NAME": "STARLINK-30101",
        "OBJECT_ID": "2023-056R",
        "EPOCH": "2026-07-02T14:48:03.204000",
        "MEAN_MOTION": 15.28978689,
        "ECCENTRICITY": 0.000109,
        "INCLINATION": 43.0012,
        "RA_OF_ASC_NODE": 279.2588,
        "ARG_OF_PERICENTER": 346.0514,
        "MEAN_ANOMALY": 14.0308,
        "EPHEMERIS_TYPE": 0,
        "CLASSIFICATION_TYPE": "U",
        "NORAD_CAT_ID": 56301,
        "ELEMENT_SET_NO": 999,
        "REV_AT_EPOCH": 17768,
        "BSTAR": 0.00092442,
        "MEAN_MOTION_DOT": 0.0002638,
        "MEAN_MOTION_DDOT": 0
      },
      "source": "celestrak",
      "source_url": "https://celestrak.org/NORAD/elements/gp.php?NAME=STARLINK&FORMAT=JSON",
      "catalog_fingerprint": "eb0f9db4"
    },
    {
      "satellite_id": "P54-S10",
      "norad_id": 56297,
      "satellite_name": "STARLINK-30086",
      "cospar_id": "2023-056M",
      "shell_id": "starlink-real-43deg-490km",
      "plane_id": 53,
      "slot_id": 9,
      "epoch": "2026-07-02T16:16:02.415072",
      "inclination": 43.0036,
      "raan": 279.65059999999994,
      "eccentricity": 0.0000846,
      "argument_of_perigee": 296.9385,
      "mean_anomaly": 63.13799999999998,
      "mean_motion": 15.27588417,
      "bstar": 0.0000032077,
      "status": "active",
      "raw_omm": {
        "OBJECT_NAME": "STARLINK-30086",
        "OBJECT_ID": "2023-056M",
        "EPOCH": "2026-07-02T16:16:02.415072",
        "MEAN_MOTION": 15.27588417,
        "ECCENTRICITY": 0.0000846,
        "INCLINATION": 43.0036,
        "RA_OF_ASC_NODE": 279.6506,
        "ARG_OF_PERICENTER": 296.9385,
        "MEAN_ANOMALY": 63.138,
        "EPHEMERIS_TYPE": 0,
        "CLASSIFICATION_TYPE": "U",
        "NORAD_CAT_ID": 56297,
        "ELEMENT_SET_NO": 999,
        "REV_AT_EPOCH": 17762,
        "BSTAR": 0.0000032077,
        "MEAN_MOTION_DOT": -0.00000174,
        "MEAN_MOTION_DDOT": 0
      },
      "source": "celestrak",
      "source_url": "https://celestrak.org/NORAD/elements/gp.php?NAME=STARLINK&FORMAT=JSON",
      "catalog_fingerprint": "eb0f9db4"
    }
  ]
}