STARLINK-30086          
1 56297U 23056M   26183.67780573 -.00000174  00000+0  32077-5 0  9994
2 56297  43.0036 279.6506 0000846 296.9385  63.1380 15.27588417177624
STARLINK-30101          
1 56301U 23056R   26183.61670375  .00026380  00000+0  92442-3 0  9998
2 56301  43.0012 279.2588 0001090 346.0514  14.0308 15.28978689177689
STARLINK-30264          
1 57534U 23115P   26183.74959538 -.00000453  00000+0 -69414-5 0  9998
2 57534  43.0011 279.0992 0001247 276.9261  83.1449 15.27570485162956
STARLINK-31865          
1 59791U 24093K   26183.62009882 -.00001617  00000+0 -49273-4 0  9999
2 59791  43.0012 279.7356 0000939 288.2095  71.8654 15.27560680120270
STARLINK-31823          
1 59794U 24093N   26183.68931972  .00000739  00000+0  36377-4 0  9995
2 59794  43.0019 279.3938 0001173 262.6633  97.4086 15.27582440120289
STARLINK-31916          
1 59795U 24093P   26183.69318453 -.00001386  00000+0 -40869-4 0  9992
2 59795  43.0024 279.4208 0001029 278.3820  81.6915 15.27569452120283
